IRIDIUM 57              
1 25273U 98019B   24228.40546704  .00001202  00000+0  41264-3 0  9998
2 25273  86.3922 273.3133 0002264  91.2593 268.8863 14.35333073380910
IRIDIUM 63              
1 25286U 98021B   24228.47611581  .00001585  00000+0  54021-3 0  9997
2 25286  86.3993 210.1921 0002399  94.5180 265.6290 14.35895209379969
IRIDIUM 69              
1 25319U 98026A   24228.50883493  .00001585  00000+0  49593-3 0  9994
2 25319  86.3963 224.3796 0001631  24.1728 335.9547 14.40150645379055
IRIDIUM 71              
1 25320U 98026B   24228.49621542  .00001780  00000+0  55406-3 0  9996
2 25320  86.3970 219.1355 0003592  55.4288 304.7249 14.40457339379574
IRIDIUM 73              
1 25344U 98032C   24228.41663446  .00002471  00000+0  62369-3 0  9994
2 25344  86.4473 176.5430 0002116  77.6706 282.4736 14.50736673386215
IRIDIUM 82              
1 25467U 98051A   24228.33118492  .00026227  00000+0  12425-2 0  9990
2 25467  86.3714 257.6564 0121252   4.1606 356.0609 15.12801830377421
